<kml xmlns="http://www.opengis.net/kml/2.2"><Document>
<Placemark id="SXmaC">
<name>GraphHopper Track</name><ExtendedData></ExtendedData>
  <LineString><coordinates>-97.470089,35.655761
-97.468818,35.655689
-97.468802,35.654643
-97.466919,35.654658
-97.466906,35.652778
-97.445351,35.652713
-97.428777,35.652713
-97.424737,35.652058
-97.423046,35.652165
-97.423655,35.655672
-97.422441,35.663269
-97.421169,35.66845
-97.419885,35.672146
-97.417646,35.677487
-97.416464,35.681967
-97.416142,35.686214
-97.416178,35.725169
-97.416177,35.761679
-97.415748,35.771114
-97.415756,35.785599
-97.415815,35.789223
-97.416184,35.795748
-97.416206,35.812565
-97.415761,35.816278
-97.41458,35.819382
-97.412271,35.822797
-97.410507,35.824571
-97.401421,35.832002
-97.399492,35.833741
-97.397548,35.836002
-97.395639,35.839277
-97.394964,35.841038
-97.394315,35.843883
-97.394166,35.845734
-97.394047,35.878431
-97.393972,35.903206
-97.393772,35.906296
-97.392678,35.910476
-97.391303,35.91339
-97.384081,35.925481
-97.380406,35.931494
-97.373894,35.942462
-97.371399,35.946444
-97.366792,35.954353
-97.35673,35.971149
-97.355256,35.974192
-97.353969,35.978857
-97.353467,35.982707
-97.345632,36.026641
-97.345098,36.032683
-97.345104,36.044137
-97.344819,36.051059
-97.345076,36.056318
-97.345054,36.095293
-97.34501,36.117782
-97.344551,36.121418
-97.343357,36.125449
-97.341803,36.128758
-97.329326,36.151182
-97.328058,36.154315
-97.327444,36.156913
-97.32719,36.160937
-97.327714,36.1731
-97.328087,36.178181
-97.32846,36.187145
-97.328382,36.19173
-97.32807,36.197971
-97.327886,36.206413
-97.32813,36.230609
-97.327808,36.23637
-97.327408,36.239134
-97.325313,36.250517
-97.325127,36.253063
-97.325577,36.256529
-97.326494,36.260345
-97.327107,36.263846
-97.327537,36.269909
-97.327709,36.295222
-97.327773,36.29834
-97.328292,36.311295
-97.328275,36.316457
-97.3281,36.320942
-97.327053,36.336802
-97.32684,36.342998
-97.327019,36.400784
-97.326933,36.415692
-97.326798,36.421566
-97.326875,36.433201
-97.326892,36.463347
-97.32695,36.479798
-97.327078,36.482105
-97.327596,36.485256
-97.328513,36.488267
-97.330328,36.492362
-97.334281,36.500705
-97.335104,36.502714
-97.336496,36.50762
-97.336994,36.511039
-97.337206,36.516332
-97.337671,36.519479
-97.338302,36.521897
-97.339886,36.52584
-97.341701,36.529167
-97.343263,36.532641
-97.344844,36.537925
-97.345461,36.542627
-97.345509,36.550213
-97.345605,36.585313
-97.345269,36.594518
-97.345637,36.601737
-97.345696,36.622454
-97.345737,36.675175
-97.345727,36.724219
-97.345774,36.750631
-97.345878,36.782423
-97.345744,36.787928
-97.345058,36.794038
-97.342851,36.806342
-97.342394,36.810002
-97.342228,36.814092
-97.342347,36.817318
-97.3447,36.852852
-97.345384,36.858087
-97.346608,36.863088
-97.348478,36.869204
-97.349426,36.873121
-97.353534,36.892765
-97.354045,36.898285
-97.353609,36.90362
-97.348735,36.928873
-97.346039,36.942592
-97.345556,36.94768
-97.345487,36.983565
-97.345309,36.98673
-97.344745,36.990824
-97.343885,36.994676
-97.339123,37.010109
-97.338249,37.01428
-97.33804,37.017946
-97.338183,37.042668
-97.338419,37.080394
-97.338419,37.088713
-97.338573,37.104534
-97.338548,37.111496
-97.338702,37.128619
-97.339226,37.142284
-97.339311,37.146977
-97.339389,37.169468
-97.339474,37.182811
-97.339801,37.184596
-97.341474,37.189382
-97.341629,37.192951
-97.34041,37.196849
-97.339929,37.199433
-97.339826,37.210719
-97.339612,37.213502
-97.33896,37.217739
-97.338618,37.222356
-97.338679,37.231934
-97.338261,37.236844
-97.338326,37.24202
-97.338672,37.245022
-97.338771,37.248699
-97.338771,37.25796
-97.338882,37.259818
-97.340071,37.26713
-97.340155,37.268425
-97.340124,37.292399
-97.340369,37.309804
-97.339549,37.316623
-97.339424,37.323187
-97.33805,37.326912
-97.336047,37.32945
-97.325101,37.340317
-97.323651,37.342121
-97.322295,37.344932
-97.321821,37.348163
-97.322002,37.358382
-97.321863,37.361002
-97.321316,37.364721
-97.321348,37.366645
-97.322687,37.372714
-97.325825,37.394321
-97.325907,37.397218
-97.325332,37.400677
-97.322273,37.411147
-97.321296,37.414843
-97.32102,37.417992
-97.321222,37.434337
-97.322032,37.4494
-97.322919,37.478927
-97.323587,37.487923
-97.323698,37.494428
-97.323978,37.523118
-97.32422,37.52906
-97.324205,37.53498
-97.324467,37.538529
-97.325415,37.544219
-97.32571,37.547658
-97.325779,37.580007
-97.32538,37.582762
-97.3242,37.587146
-97.323875,37.590363
-97.324187,37.595682
-97.323856,37.597544
-97.322654,37.59875
-97.322252,37.600329
-97.32604,37.609241
-97.326644,37.610931
-97.328571,37.621042
-97.328521,37.622454
-97.327713,37.624223
-97.326243,37.625569
-97.324574,37.626365
-97.318691,37.628059
-97.316769,37.629003
-97.315275,37.630171
-97.309294,37.635862
-97.308197,37.637408
-97.307491,37.639335
-97.307724,37.642669
-97.311671,37.655206
-97.312163,37.658188
-97.312381,37.684195
-97.31266,37.685706
-97.321669,37.714338
-97.32174,37.716717
-97.321169,37.71805
-97.31871,37.72106
-97.317876,37.723514
-97.317553,37.726418
-97.316659,37.730596
-97.316677,37.733355
-97.317025,37.735195
-97.318913,37.739938
-97.319062,37.741136
-97.318928,37.745856
-97.320558,37.761195
-97.321106,37.763092
-97.323636,37.768058
-97.324925,37.771822
-97.325314,37.774469
-97.325409,37.783796
-97.325745,37.786309
-97.327592,37.791672
-97.328326,37.794984
-97.328442,37.797044
-97.328232,37.799583
-97.326582,37.807412
-97.326304,37.809988
-97.326432,37.828815
-97.326668,37.831362
-97.327682,37.838353
-97.327588,37.840803
-97.326472,37.847938
-97.326155,37.851808
-97.326318,37.864604
-97.326305,37.87788
-97.326566,37.89055
-97.326128,37.906065
-97.327138,37.920372
-97.328118,37.936353
-97.328148,37.938242
-97.326714,37.981071
-97.326886,37.984133
-97.32793,37.992332
-97.328106,37.995293
-97.327807,38.013009
-97.327814,38.027343
-97.327087,38.030416
-97.324548,38.034409
-97.322969,38.037808
-97.322363,38.042012
-97.322475,38.064191
-97.322692,38.065589
-97.323951,38.068051
-97.330672,38.076531
-97.332257,38.078142
-97.335589,38.080149
-97.354397,38.088121
-97.357501,38.089932
-97.390863,38.118006
-97.39328,38.120501
-97.402288,38.131959
-97.404765,38.134535
-97.428194,38.153766
-97.430612,38.156109
-97.432,38.15785
-97.439268,38.167972
-97.441924,38.170636
-97.443949,38.17219
-97.478386,38.194784
-97.482009,38.197754
-97.503409,38.219627
-97.507815,38.223203
-97.523339,38.233505
-97.526529,38.236329
-97.531032,38.241612
-97.534931,38.245251
-97.55104,38.25771
-97.553085,38.259383
-97.584602,38.286635
-97.615956,38.313742
-97.617912,38.315843
-97.620004,38.319228
-97.620918,38.321842
-97.621322,38.324682
-97.621462,38.33369
-97.620614,38.354687
-97.620482,38.37658
-97.620487,38.38223
-97.620769,38.449108
-97.620838,38.467776
-97.620561,38.471272
-97.619793,38.476533
-97.619644,38.479868
-97.618885,38.484337
-97.618791,38.48863
-97.619422,38.493761
-97.619361,38.498818
-97.619139,38.502524
-97.619648,38.50688
-97.619757,38.509922
-97.619495,38.51249
-97.619688,38.515768
-97.620434,38.519701
-97.620518,38.521303
-97.62052,38.540361
-97.621003,38.558985
-97.62113,38.590714
-97.62125,38.613005
-97.621428,38.653133
-97.621575,38.686757
-97.621777,38.696313
-97.621733,38.71982
-97.621228,38.722954
-97.61931,38.727313
-97.618484,38.729584
-97.618085,38.732253
-97.617863,38.765275
-97.616957,38.771384
-97.616863,38.772981
-97.616683,38.792111
-97.617095,38.795255
-97.618802,38.799117
-97.620517,38.801343
-97.621877,38.802653
-97.631088,38.810552
-97.633156,38.812821
-97.635222,38.816625
-97.641612,38.831936
-97.64584,38.84033
-97.646727,38.842264
-97.647325,38.844406
-97.647542,38.846511
-97.647342,38.848946
-97.645641,38.857474
-97.645444,38.859311
-97.645318,38.87528
-97.64485,38.874699
-97.650188,38.874403
-97.654878,38.874742
-97.672729,38.877929
-97.675914,38.878224
-97.68626,38.878193
-97.740552,38.878203
-97.791915,38.878287
-97.810358,38.878325
-97.823857,38.878426
-97.866526,38.878798
-97.879822,38.879457
-97.883013,38.879398
-97.889796,38.878555
-97.895888,38.878258
-97.92065,38.878827
-97.92457,38.87884
-97.94294,38.878433
-97.994891,38.878475
-98.015118,38.878461
-98.017877,38.878152
-98.029511,38.875316
-98.034373,38.874741
-98.050024,38.874819
-98.051356,38.874713
-98.055615,38.873669
-98.065876,38.869563
-98.070399,38.868415
-98.073247,38.868137
-98.089639,38.868135
-98.092316,38.867868
-98.094727,38.867267
-98.0983,38.865536
-98.10368,38.861507
-98.105293,38.860565
-98.108125,38.859464
-98.116656,38.857411
-98.119777,38.856856
-98.122115,38.856696
-98.136665,38.856522
-98.141484,38.856162
-98.143896,38.855624
-98.148172,38.853979
-98.154016,38.850737
-98.158786,38.849293
-98.163103,38.848856
-98.181925,38.848601
-98.206569,38.848338
-98.222713,38.848127
-98.229926,38.848513
-98.239322,38.849152
-98.243476,38.849281
-98.26872,38.849529
-98.312492,38.849162
-98.333083,38.848621
-98.373299,38.84857
-98.379312,38.848584
-98.396397,38.848931
-98.41511,38.849084
-98.423105,38.848532
-98.42759,38.848573
-98.434265,38.84917
-98.444804,38.849242
-98.453288,38.849179
-98.479718,38.848868
-98.488185,38.848806
-98.502799,38.849398
-98.509458,38.850178
-98.529983,38.854464
-98.535143,38.855345
-98.53711,38.855539
-98.56172,38.857234
-98.564669,38.857314
-98.576288,38.857166
-98.591232,38.85691
-98.609792,38.856667
-98.628278,38.856719
-98.640617,38.8572
-98.69776,38.857177
-98.703489,38.857397
-98.711941,38.85738
-98.719381,38.857158
-98.750432,38.85728
-98.772256,38.857331
-98.775202,38.857206
-98.779347,38.856781
-98.782242,38.856726
-98.788392,38.857182
-98.806307,38.857158
-98.81032,38.857549
-98.837483,38.86362
-98.84256,38.864181
-98.89374,38.864215
-98.931612,38.864204
-98.934935,38.864128
-98.943215,38.863435
-98.948141,38.863301
-98.985296,38.863165
-98.996483,38.863471
-99.009272,38.863488
-99.054055,38.863977
-99.05775,38.863868
-99.079152,38.86256
-99.082152,38.862688
-99.083887,38.863101
-99.094214,38.867197
-99.122338,38.877216
-99.125079,38.877927
-99.128975,38.878385
-99.155694,38.878444
-99.165566,38.878706
-99.170905,38.878967
-99.193798,38.880369
-99.196321,38.880415
-99.209943,38.879664
-99.218979,38.879773
-99.22166,38.879568
-99.228556,38.878716
-99.232928,38.878561
-99.26809,38.878382
-99.270749,38.878584
-99.274945,38.879536
-99.276677,38.880179
-99.326697,38.902495
-99.330143,38.903815
-99.375338,38.919808
-99.377585,38.920503
-99.383463,38.921605
-99.387711,38.921821
-99.419867,38.921751
-99.424063,38.92213
-99.425842,38.922518
-99.437341,38.92573
-99.449299,38.929003
-99.478204,38.937054
-99.521318,38.948949
-99.525995,38.949756
-99.530585,38.949991
-99.548871,38.949648
-99.552523,38.949679
-99.568464,38.950206
-99.57154,38.950255
-99.592803,38.950315
-99.595677,38.950566
-99.599712,38.951534
-99.620446,38.958448
-99.625,38.959874
-99.650608,38.967261
-99.655527,38.968713
-99.690593,38.978766
-99.694857,38.979597
-99.697894,38.979883
-99.722842,38.98091
-99.726577,38.981281
-99.728808,38.981714
-99.742516,38.984928
-99.78631,38.995262
-99.795523,38.997461
-99.798788,38.998141
-99.834529,39.004312
-99.860836,39.008819
-99.87891,39.012485
-99.927907,39.022519
-99.93008,39.022932
-99.934263,39.023183
-99.959141,39.023126
-99.98835,39.023091
-100.004123,39.023629
-100.007044,39.023624
-100.016862,39.023164
-100.096712,39.023525
-100.108391,39.023918
-100.130508,39.024102
-100.162903,39.023868
-100.165056,39.023928
-100.169029,39.024505
-100.171333,39.025159
-100.174822,39.026643
-100.241185,39.057865
-100.250291,39.062173
-100.269882,39.071347
-100.292387,39.081919
-100.32097,39.095304
-100.324572,39.096633
-100.328559,39.097402
-100.332344,39.097545
-100.410643,39.097174
-100.414829,39.097384
-100.418363,39.097821
-100.440019,39.102014
-100.485082,39.110782
-100.490745,39.111537
-100.493952,39.111679
-100.535086,39.112039
-100.572903,39.111639
-100.637692,39.11173
-100.682066,39.111775
-100.690875,39.111891
-100.734925,39.112545
-100.741688,39.112613
-100.774739,39.112441
-100.794243,39.112374
-100.79589,39.112428
-100.799308,39.113052
-100.80183,39.114053
-100.804274,39.115643
-100.805517,39.116837
-100.836439,39.151136
-100.838443,39.153621
-100.853882,39.174328
-100.85552,39.176438
-100.857339,39.178294
-100.877395,39.196215
-100.880679,39.199741
-100.881893,39.201367
-100.896886,39.223819
-100.898825,39.226424
-100.921834,39.254206
-100.932707,39.267289
-100.965168,39.306403
-100.967203,39.308474
-100.969859,39.310375
-100.973052,39.311942
-100.986294,39.316784
-100.99008,39.318798
-100.991968,39.320245
-100.993607,39.321904
-101.026655,39.358021
-101.030299,39.361181
-101.033176,39.362767
-101.035541,39.363689
-101.038513,39.364471
-101.043286,39.364961
-101.065881,39.364973
-101.085278,39.364918
-101.130521,39.36534
-101.145936,39.365808
-101.154091,39.365865
-101.166317,39.3658
-101.193205,39.366065
-101.242256,39.366297
-101.285002,39.366478
-101.309321,39.366448
-101.312942,39.366316
-101.317729,39.365366
-101.320679,39.364252
-101.333786,39.357975
-101.376099,39.337765
-101.385449,39.333257
-101.390367,39.331382
-101.393227,39.330807
-101.396743,39.330563
-101.468968,39.330332
-101.517131,39.329933
-101.536643,39.329916
-101.618408,39.329784
-101.661917,39.329693
-101.678403,39.330138
-101.711409,39.330038
-101.713354,39.329906
-101.727513,39.328205
-101.732465,39.328132
-101.746782,39.329318
-101.751141,39.329471
-101.767438,39.329452
-101.800566,39.329747
-101.809295,39.329748
-101.826355,39.329637
-101.855645,39.329508
-101.866953,39.329529
-101.87008,39.329468
-101.87822,39.328919
-101.883192,39.328434
-101.885634,39.3284
-101.889624,39.32875
-101.895027,39.328762
-101.897561,39.329001
-101.900895,39.329609
-101.904072,39.329688
-101.911038,39.328827
-101.916039,39.329166
-101.921439,39.329199
-101.95569,39.329154
-101.966722,39.329159
-102.011918,39.329236
-102.01687,39.329342
-102.037391,39.330088
-102.048277,39.329876
-102.064878,39.329397
-102.07223,39.328658
-102.12927,39.322431
-102.136747,39.321495
-102.144683,39.320027
-102.147147,39.319793
-102.153592,39.319684
-102.155986,39.319486
-102.200324,39.314591
-102.236933,39.310557
-102.240232,39.309925
-102.244301,39.308454
-102.247015,39.306936
-102.260208,39.297782
-102.264342,39.295792
-102.267788,39.294837
-102.271925,39.294362
-102.282319,39.294221
-102.351324,39.294499
-102.369412,39.294436
-102.43853,39.29409
-102.443621,39.293786
-102.450719,39.293045
-102.454286,39.292991
-102.458171,39.293218
-102.47205,39.294531
-102.476988,39.294813
-102.542002,39.294731
-102.550882,39.29474
-102.630546,39.29459
-102.634238,39.294477
-102.649369,39.293561
-102.652407,39.293507
-102.707442,39.293698
-102.723206,39.293841
-102.757017,39.294079
-102.779446,39.294264
-102.817642,39.294626
-102.855669,39.293606
-102.876548,39.293573
-102.879717,39.293434
-102.885019,39.292763
-102.923751,39.28558
-102.967971,39.277359
-102.991206,39.273061
-102.994027,39.27276
-102.997455,39.272809
-103.001508,39.273487
-103.042398,39.283562
-103.046333,39.284342
-103.0494,39.284726
-103.07599,39.287464
-103.078638,39.287576
-103.09288,39.287619
-103.108187,39.287513
-103.133139,39.287544
-103.165541,39.286776
-103.192454,39.285969
-103.256942,39.283944
-103.263927,39.28311
-103.268944,39.282743
-103.282621,39.28305
-103.288874,39.282992
-103.341181,39.281342
-103.355237,39.280878
-103.360232,39.280591
-103.383092,39.2799
-103.3983,39.279002
-103.401086,39.278902
-103.410013,39.279146
-103.467564,39.277259
-103.479153,39.27686
-103.482419,39.276394
-103.485863,39.275617
-103.489592,39.275171
-103.496432,39.275007
-103.500224,39.274685
-103.504913,39.273641
-103.519982,39.26975
-103.523117,39.269154
-103.548905,39.265236
-103.554826,39.264835
-103.561492,39.265072
-103.589276,39.266373
-103.623085,39.267907
-103.627671,39.26772
-103.630762,39.267112
-103.635867,39.265303
-103.638745,39.264501
-103.656117,39.261352
-103.658579,39.26111
-103.661909,39.261552
-103.664309,39.26251
-103.678342,39.271085
-103.680602,39.272157
-103.684485,39.273235
-103.686404,39.273477
-103.690367,39.273535
-103.731562,39.273337
-103.736905,39.273841
-103.765289,39.280204
-103.769087,39.281127
-103.773755,39.282478
-103.785323,39.286236
-103.788751,39.287716
-103.810359,39.300035
-103.814432,39.302402
-103.817252,39.304303
-103.81924,39.305907
-103.821712,39.308318
-103.824718,39.312018
-103.839781,39.335679
-103.841342,39.337868
-103.843847,39.340706
-103.847597,39.343996
-103.850195,39.345815
-103.854077,39.348034
-103.869664,39.356195
-103.871783,39.357489
-103.874457,39.359747
-103.875865,39.361371
-103.878675,39.365553
-103.884634,39.376604
-103.88569,39.378836
-103.886713,39.381802
-103.889985,39.394235
-103.891332,39.397179
-103.90063,39.411668
-103.904064,39.416025
-103.92031,39.432457
-103.922463,39.435321
-103.943492,39.473836
-103.946252,39.477696
-103.957662,39.490218
-103.959268,39.491891
-103.965788,39.497788
-103.967664,39.499881
-103.976708,39.512649
-103.981543,39.51911
-103.990465,39.531666
-104.013026,39.56524
-104.031669,39.592983
-104.033155,39.596162
-104.03717,39.609048
-104.039264,39.613083
-104.050448,39.629438
-104.052685,39.632062
-104.079481,39.658023
-104.085297,39.663686
-104.087363,39.665322
-104.099104,39.672358
-104.119617,39.684578
-104.124062,39.686797
-104.126373,39.687626
-104.159978,39.698308
-104.161275,39.698633
-104.19059,39.704729
-104.193906,39.705489
-104.196794,39.706485
-104.218306,39.714735
-104.220184,39.715346
-104.23941,39.720187
-104.241934,39.720876
-104.275588,39.729294
-104.280516,39.729925
-104.283949,39.729809
-104.288599,39.729433
-104.291214,39.729714
-104.312944,39.73347
-104.316691,39.733879
-104.334981,39.734804
-104.339885,39.734693
-104.370438,39.733005
-104.375916,39.732928
-104.381667,39.733749
-104.409212,39.738048
-104.413523,39.738301
-104.456325,39.738407
-104.500337,39.738474
-104.508259,39.738527
-104.559346,39.739576
-104.604079,39.740135
-104.624571,39.740298
-104.628385,39.740076
-104.63142,39.7395
-104.63569,39.73836
-104.637713,39.738132
-104.640018,39.738247
-104.657687,39.740357
-104.660975,39.74046
-104.666147,39.740265
-104.67793,39.740173
-104.689567,39.740247
-104.696878,39.740228
-104.725752,39.740277
-104.728468,39.740516
-104.733551,39.741475
-104.735609,39.742342
-104.752821,39.75256
-104.753592,39.752955
-104.789,39.765222
-104.799383,39.768786
-104.805159,39.770263
-104.810233,39.771033
-104.827857,39.772564
-104.832555,39.772881
-104.872728,39.776349
-104.893533,39.778164
-104.899332,39.778435
-104.919235,39.778401
-104.923805,39.778803
-104.930342,39.780054
-104.932431,39.780251
-104.938696,39.780397
-104.941058,39.780616
-104.940636,39.77385
-104.940703,39.755024
-104.940775,39.751039
-104.94572,39.751236
-104.945394,39.748821
-104.948318,39.747759
-104.949765,39.74832</coordinates></LineString></Placemark></Document></kml>